[{"OBJECT_NAME":"STARLINK-3552","OBJECT_ID":"2022-017AX","EPOCH":"2026-03-09T22:46:59.222784","MEAN_MOTION":15.08832758,"ECCENTRICITY":0.00011223,"INCLINATION":53.2185,"RA_OF_ASC_NODE":327.9839,"ARG_OF_PERICENTER":78.4437,"MEAN_ANOMALY":281.6681,"EPHEMERIS_TYPE":0,"CLASSIFICATION_TYPE":"U","NORAD_CAT_ID":51813,"ELEMENT_SET_NO":999,"REV_AT_EPOCH":22412,"BSTAR":4.102763e-6,"MEAN_MOTION_DOT":-2.22e-6,"MEAN_MOTION_DDOT":0},{"OBJECT_NAME":"CZ-6A DEB","OBJECT_ID":"2022-151YC","EPOCH":"2026-03-09T04:14:53.282976","MEAN_MOTION":14.99280007,"ECCENTRICITY":0.00518471,"INCLINATION":98.6024,"RA_OF_ASC_NODE":155.4435,"ARG_OF_PERICENTER":132.3409,"MEAN_ANOMALY":228.2221,"EPHEMERIS_TYPE":0,"CLASSIFICATION_TYPE":"U","NORAD_CAT_ID":55530,"ELEMENT_SET_NO":999,"REV_AT_EPOCH":17201,"BSTAR":0.0041206483,"MEAN_MOTION_DOT":0.00051995,"MEAN_MOTION_DDOT":0}]
